CCSDS_OMM_VERS = 2.0
CREATION_DATE  = 
ORIGINATOR     = 

OBJECT_NAME    = STARLINK-36224
OBJECT_ID      = 2025-304M
CENTER_NAME    = EARTH
REF_FRAME      = TEME
TIME_SYSTEM    = UTC
MEAN_ELEMENT_THEORY = SGP/SGP4

EPOCH          = 2026-01-09T10:46:49.168416
MEAN_MOTION    = 15.52192810
ECCENTRICITY   = .00034067
INCLINATION    = 70.0000
RA_OF_ASC_NODE = 329.7222
ARG_OF_PERICENTER = 278.8889
MEAN_ANOMALY   = 81.1912

EPHEMERIS_TYPE = 0
CLASSIFICATION_TYPE = U
NORAD_CAT_ID   = 67203
ELEMENT_SET_NO = 999
REV_AT_EPOCH   = 486
BSTAR          = -.20827316E-2
MEAN_MOTION_DOT = -.124843E-2
MEAN_MOTION_DDOT = 0

CCSDS_OMM_VERS = 2.0
CREATION_DATE  = 
ORIGINATOR     = 

OBJECT_NAME    = STARLINK-36185
OBJECT_ID      = 2025-304N
CENTER_NAME    = EARTH
REF_FRAME      = TEME
TIME_SYSTEM    = UTC
MEAN_ELEMENT_THEORY = SGP/SGP4

EPOCH          = 2026-01-10T00:41:16.033920
MEAN_MOTION    = 15.52526149
ECCENTRICITY   = .00030332
INCLINATION    = 69.9999
RA_OF_ASC_NODE = 328.1321
ARG_OF_PERICENTER = 267.1060
MEAN_ANOMALY   = 92.9779

EPHEMERIS_TYPE = 0
CLASSIFICATION_TYPE = U
NORAD_CAT_ID   = 67204
ELEMENT_SET_NO = 999
REV_AT_EPOCH   = 495
BSTAR          = .90817768E-3
MEAN_MOTION_DOT = .56113E-3
MEAN_MOTION_DDOT = 0

CCSDS_OMM_VERS = 2.0
CREATION_DATE  = 
ORIGINATOR     = 

OBJECT_NAME    = STARLINK-36197
OBJECT_ID      = 2025-304P
CENTER_NAME    = EARTH
REF_FRAME      = TEME
TIME_SYSTEM    = UTC
MEAN_ELEMENT_THEORY = SGP/SGP4

EPOCH          = 2026-01-10T23:52:28.039008
MEAN_MOTION    = 15.52566906
ECCENTRICITY   = .0003156
INCLINATION    = 69.9999
RA_OF_ASC_NODE = 325.4832
ARG_OF_PERICENTER = 271.6113
MEAN_ANOMALY   = 88.4712

EPHEMERIS_TYPE = 0
CLASSIFICATION_TYPE = U
NORAD_CAT_ID   = 67205
ELEMENT_SET_NO = 999
REV_AT_EPOCH   = 507
BSTAR          = .1864541E-2
MEAN_MOTION_DOT = .116434E-2
MEAN_MOTION_DDOT = 0

CCSDS_OMM_VERS = 2.0
CREATION_DATE  = 
ORIGINATOR     = 

OBJECT_NAME    = STARLINK-36056
OBJECT_ID      = 2025-304Q
CENTER_NAME    = EARTH
REF_FRAME      = TEME
TIME_SYSTEM    = UTC
MEAN_ELEMENT_THEORY = SGP/SGP4

EPOCH          = 2026-01-10T23:51:58.337280
MEAN_MOTION    = 15.52572631
ECCENTRICITY   = .00032491
INCLINATION    = 69.9999
RA_OF_ASC_NODE = 325.4818
ARG_OF_PERICENTER = 273.3254
MEAN_ANOMALY   = 86.7562

EPHEMERIS_TYPE = 0
CLASSIFICATION_TYPE = U
NORAD_CAT_ID   = 67206
ELEMENT_SET_NO = 999
REV_AT_EPOCH   = 507
BSTAR          = .19408911E-2
MEAN_MOTION_DOT = .121309E-2
MEAN_MOTION_DDOT = 0

CCSDS_OMM_VERS = 2.0
CREATION_DATE  = 
ORIGINATOR     = 

OBJECT_NAME    = STARLINK-36225
OBJECT_ID      = 2025-304R
CENTER_NAME    = EARTH
REF_FRAME      = TEME
TIME_SYSTEM    = UTC
MEAN_ELEMENT_THEORY = SGP/SGP4

EPOCH          = 2026-01-10T22:18:42.017472
MEAN_MOTION    = 15.52552425
ECCENTRICITY   = .00033314
INCLINATION    = 70.0000
RA_OF_ASC_NODE = 325.6571
ARG_OF_PERICENTER = 274.0661
MEAN_ANOMALY   = 86.0145

EPHEMERIS_TYPE = 0
CLASSIFICATION_TYPE = U
NORAD_CAT_ID   = 67207
ELEMENT_SET_NO = 999
REV_AT_EPOCH   = 509
BSTAR          = .12865495E-2
MEAN_MOTION_DOT = .79878E-3
MEAN_MOTION_DDOT = 0

CCSDS_OMM_VERS = 2.0
CREATION_DATE  = 
ORIGINATOR     = 

OBJECT_NAME    = STARLINK-36265
OBJECT_ID      = 2025-304S
CENTER_NAME    = EARTH
REF_FRAME      = TEME
TIME_SYSTEM    = UTC
MEAN_ELEMENT_THEORY = SGP/SGP4

EPOCH          = 2026-01-10T22:00:01.999584
MEAN_MOTION    = 15.42707298
ECCENTRICITY   = .00031779
INCLINATION    = 70.0002
RA_OF_ASC_NODE = 325.8136
ARG_OF_PERICENTER = 264.0902
MEAN_ANOMALY   = 276.8586

EPHEMERIS_TYPE = 0
CLASSIFICATION_TYPE = U
NORAD_CAT_ID   = 67208
ELEMENT_SET_NO = 999
REV_AT_EPOCH   = 515
BSTAR          = .1151254E-2
MEAN_MOTION_DOT = .5059E-3
MEAN_MOTION_DDOT = 0

CCSDS_OMM_VERS = 2.0
CREATION_DATE  = 
ORIGINATOR     = 

OBJECT_NAME    = STARLINK-36226
OBJECT_ID      = 2025-304T
CENTER_NAME    = EARTH
REF_FRAME      = TEME
TIME_SYSTEM    = UTC
MEAN_ELEMENT_THEORY = SGP/SGP4

EPOCH          = 2026-01-10T22:00:01.999584
MEAN_MOTION    = 15.42730722
ECCENTRICITY   = .00039348
INCLINATION    = 70.0000
RA_OF_ASC_NODE = 325.7625
ARG_OF_PERICENTER = 257.4992
MEAN_ANOMALY   = 328.3427

EPHEMERIS_TYPE = 0
CLASSIFICATION_TYPE = U
NORAD_CAT_ID   = 67209
ELEMENT_SET_NO = 999
REV_AT_EPOCH   = 515
BSTAR          = .7632378E-3
MEAN_MOTION_DOT = .33444E-3
MEAN_MOTION_DDOT = 0

CCSDS_OMM_VERS = 2.0
CREATION_DATE  = 
ORIGINATOR     = 

OBJECT_NAME    = STARLINK-36173
OBJECT_ID      = 2025-304U
CENTER_NAME    = EARTH
REF_FRAME      = TEME
TIME_SYSTEM    = UTC
MEAN_ELEMENT_THEORY = SGP/SGP4

EPOCH          = 2026-01-10T22:00:01.999584
MEAN_MOTION    = 15.44995995
ECCENTRICITY   = .00033068
INCLINATION    = 70.0001
RA_OF_ASC_NODE = 325.7106
ARG_OF_PERICENTER = 265.8021
MEAN_ANOMALY   = 4.2948

EPHEMERIS_TYPE = 0
CLASSIFICATION_TYPE = U
NORAD_CAT_ID   = 67210
ELEMENT_SET_NO = 999
REV_AT_EPOCH   = 515
BSTAR          = -.53569273E-1
MEAN_MOTION_DOT = -.2230625E-1
MEAN_MOTION_DDOT = 0

CCSDS_OMM_VERS = 2.0
CREATION_DATE  = 
ORIGINATOR     = 

OBJECT_NAME    = STARLINK-36280
OBJECT_ID      = 2025-304V
CENTER_NAME    = EARTH
REF_FRAME      = TEME
TIME_SYSTEM    = UTC
MEAN_ELEMENT_THEORY = SGP/SGP4

EPOCH          = 2026-01-10T00:37:55.782912
MEAN_MOTION    = 15.52039234
ECCENTRICITY   = .00035542
INCLINATION    = 69.9998
RA_OF_ASC_NODE = 328.1232
ARG_OF_PERICENTER = 283.2007
MEAN_ANOMALY   = 76.8783

EPHEMERIS_TYPE = 0
CLASSIFICATION_TYPE = U
NORAD_CAT_ID   = 67211
ELEMENT_SET_NO = 999
REV_AT_EPOCH   = 495
BSTAR          = -.3031072E-2
MEAN_MOTION_DOT = -.179396E-2
MEAN_MOTION_DDOT = 0

CCSDS_OMM_VERS = 2.0
CREATION_DATE  = 
ORIGINATOR     = 

OBJECT_NAME    = STARLINK-36213
OBJECT_ID      = 2025-304W
CENTER_NAME    = EARTH
REF_FRAME      = TEME
TIME_SYSTEM    = UTC
MEAN_ELEMENT_THEORY = SGP/SGP4

EPOCH          = 2026-01-10T23:48:25.853760
MEAN_MOTION    = 15.54674529
ECCENTRICITY   = .00074122
INCLINATION    = 69.9998
RA_OF_ASC_NODE = 325.4721
ARG_OF_PERICENTER = 339.9547
MEAN_ANOMALY   = 20.1349

EPHEMERIS_TYPE = 0
CLASSIFICATION_TYPE = U
NORAD_CAT_ID   = 67212
ELEMENT_SET_NO = 999
REV_AT_EPOCH   = 510
BSTAR          = .74086682E-2
MEAN_MOTION_DOT = .526674E-2
MEAN_MOTION_DDOT = 0

CCSDS_OMM_VERS = 2.0
CREATION_DATE  = 
ORIGINATOR     = 

OBJECT_NAME    = STARLINK-36199
OBJECT_ID      = 2025-304X
CENTER_NAME    = EARTH
REF_FRAME      = TEME
TIME_SYSTEM    = UTC
MEAN_ELEMENT_THEORY = SGP/SGP4

EPOCH          = 2026-01-10T23:48:30.865824
MEAN_MOTION    = 15.52574163
ECCENTRICITY   = .0003311
INCLINATION    = 69.9999
RA_OF_ASC_NODE = 325.4724
ARG_OF_PERICENTER = 273.2779
MEAN_ANOMALY   = 86.8029

EPHEMERIS_TYPE = 0
CLASSIFICATION_TYPE = U
NORAD_CAT_ID   = 67213
ELEMENT_SET_NO = 999
REV_AT_EPOCH   = 510
BSTAR          = .19304441E-2
MEAN_MOTION_DOT = .120653E-2
MEAN_MOTION_DDOT = 0

CCSDS_OMM_VERS = 2.0
CREATION_DATE  = 
ORIGINATOR     = 

OBJECT_NAME    = STARLINK-36203
OBJECT_ID      = 2025-304Y
CENTER_NAME    = EARTH
REF_FRAME      = TEME
TIME_SYSTEM    = UTC
MEAN_ELEMENT_THEORY = SGP/SGP4

EPOCH          = 2026-01-10T23:48:01.248768
MEAN_MOTION    = 15.52567491
ECCENTRICITY   = .00033163
INCLINATION    = 70.0000
RA_OF_ASC_NODE = 325.4706
ARG_OF_PERICENTER = 270.6796
MEAN_ANOMALY   = 89.4011

EPHEMERIS_TYPE = 0
CLASSIFICATION_TYPE = U
NORAD_CAT_ID   = 67214
ELEMENT_SET_NO = 999
REV_AT_EPOCH   = 510
BSTAR          = .19231578E-2
MEAN_MOTION_DOT = .12016E-2
MEAN_MOTION_DDOT = 0

