STARLINK-36224          
1 67203U 25304M   26009.44918019 -.00124843  00000+0 -20827-2 0  9999
2 67203  70.0000 329.7222 0003406 278.8889  81.1912 15.52192810  4861
STARLINK-36185          
1 67204U 25304N   26010.02865780  .00056113  00000+0  90818-3 0  9992
2 67204  69.9999 328.1321 0003033 267.1060  92.9779 15.52526149  4954
STARLINK-36197          
1 67205U 25304P   26010.99476897  .00116434  00000+0  18645-2 0  9996
2 67205  69.9999 325.4832 0003156 271.6113  88.4712 15.52566906  5073
STARLINK-36056          
1 67206U 25304Q   26010.99442520  .00121309  00000+0  19409-2 0  9999
2 67206  69.9999 325.4818 0003249 273.3254  86.7562 15.52572631  5072
STARLINK-36225          
1 67207U 25304R   26010.92965298  .00079878  00000+0  12865-2 0  9997
2 67207  70.0000 325.6571 0003331 274.0661  86.0145 15.52552425  5090
STARLINK-36265          
1 67208U 25304S   26010.91668981  .00050590  00000+0  11513-2 0  9995
2 67208  70.0002 325.8136 0003177 264.0902 276.8586 15.42707298  5151
STARLINK-36226          
1 67209U 25304T   26010.91668981  .00033444  00000+0  76324-3 0  9997
2 67209  70.0000 325.7625 0003934 257.4992 328.3427 15.42730722  5153
STARLINK-36173          
1 67210U 25304U   26010.91668981 -.02230625  00000+0 -53569-1 0  9997
2 67210  70.0001 325.7106 0003306 265.8021   4.2948 15.44995995  5154
STARLINK-36280          
1 67211U 25304V   26010.02634008 -.00179396  00000+0 -30311-2 0  9999
2 67211  69.9998 328.1232 0003554 283.2007  76.8783 15.52039234  4950
STARLINK-36213          
1 67212U 25304W   26010.99196590  .00526674  00000+0  74087-2 0  9996
2 67212  69.9998 325.4721 0007412 339.9547  20.1349 15.54674529  5101
STARLINK-36199          
1 67213U 25304X   26010.99202391  .00120653  00000+0  19304-2 0  9992
2 67213  69.9999 325.4724 0003311 273.2779  86.8029 15.52574163  5102
STARLINK-36203          
1 67214U 25304Y   26010.99168112  .00120160  00000+0  19232-2 0  9998
2 67214  70.0000 325.4706 0003316 270.6796  89.4011 15.52567491  5100
